{
  "norad_id": 61695,
  "name": "STARLINK-11327 [DTC]",
  "history": [
    {
      "epoch": "2026-03-28T20:17:33.271008Z",
      "apogee_km": 360.1932660973962,
      "perigee_km": 359.31195013665456,
      "latitude_deg": -5.810314124846182e-06,
      "longitude_deg": 161.07454411264507,
      "height_km": 360.57342185380105,
      "semi_major_axis_km": 6737.889608117025,
      "eccentricity": 6.54e-05,
      "inclination_deg": 53.159,
      "raan_deg": 291.7233,
      "arg_perigee_deg": 77.771,
      "mean_anomaly_deg": 282.3381,
      "mean_motion_rev_day": 15.69700964
    },
    {
      "epoch": "2026-03-29T22:16:09.531840Z",
      "apogee_km": 360.4814742569706,
      "perigee_km": 358.9438969587154,
      "latitude_deg": -4.898829777644412e-05,
      "longitude_deg": 125.0186987899709,
      "height_km": 360.9619620969721,
      "semi_major_axis_km": 6737.849685607843,
      "eccentricity": 0.0001141,
      "inclination_deg": 53.1602,
      "raan_deg": 286.3854,
      "arg_perigee_deg": 115.8741,
      "mean_anomaly_deg": 244.2394,
      "mean_motion_rev_day": 15.69714915
    },
    {
      "epoch": "2026-03-29T22:16:09.532704Z",
      "apogee_km": 360.4812047429832,
      "perigee_km": 358.9441664727028,
      "latitude_deg": -4.5664633074798254e-05,
      "longitude_deg": 125.01869765616011,
      "height_km": 360.9618444840563,
      "semi_major_axis_km": 6737.849685607843,
      "eccentricity": 0.00011406,
      "inclination_deg": 53.1602,
      "raan_deg": 286.3854,
      "arg_perigee_deg": 115.8741,
      "mean_anomaly_deg": 244.2394,
      "mean_motion_rev_day": 15.69714915
    },
    {
      "epoch": "2026-03-30T13:33:00.379872Z",
      "apogee_km": 360.5860855765932,
      "perigee_km": 358.8364011447575,
      "latitude_deg": -5.564464847143427e-06,
      "longitude_deg": -107.95629476323406,
      "height_km": 360.7036128316206,
      "semi_major_axis_km": 6737.848243360675,
      "eccentricity": 0.00012984,
      "inclination_deg": 53.1597,
      "raan_deg": 283.2498,
      "arg_perigee_deg": 95.1813,
      "mean_anomaly_deg": 264.9353,
      "mean_motion_rev_day": 15.69715419
    },
    {
      "epoch": "2026-03-30T22:43:05.979072Z",
      "apogee_km": 360.4966234346948,
      "perigee_km": 358.97682863704995,
      "latitude_deg": -3.7636577202812967e-06,
      "longitude_deg": 112.2600515215714,
      "height_km": 360.62867052284923,
      "semi_major_axis_km": 6737.873726035872,
      "eccentricity": 0.00011278,
      "inclination_deg": 53.1599,
      "raan_deg": 281.366,
      "arg_perigee_deg": 88.3662,
      "mean_anomaly_deg": 271.7485,
      "mean_motion_rev_day": 15.69706514
    },
    {
      "epoch": "2026-03-31T12:28:15.405600Z",
      "apogee_km": 360.493312762771,
      "perigee_km": 358.96031398795094,
      "latitude_deg": -6.7454198023446165e-06,
      "longitude_deg": -97.41952708034849,
      "height_km": 360.67700033637016,
      "semi_major_axis_km": 6737.86381337536,
      "eccentricity": 0.00011376,
      "inclination_deg": 53.1594,
      "raan_deg": 278.5405,
      "arg_perigee_deg": 92.7401,
      "mean_anomaly_deg": 267.3747,
      "mean_motion_rev_day": 15.69709978
    },
    {
      "epoch": "2026-04-01T19:01:56.592768Z",
      "apogee_km": 359.97138784992785,
      "perigee_km": 359.54690039284833,
      "latitude_deg": -6.079618751021891e-05,
      "longitude_deg": 156.62770732961377,
      "height_km": 360.46243056678753,
      "semi_major_axis_km": 6737.896144121388,
      "eccentricity": 3.15e-05,
      "inclination_deg": 53.1617,
      "raan_deg": 272.2645,
      "arg_perigee_deg": 3.0483,
      "mean_anomaly_deg": 357.0536,
      "mean_motion_rev_day": 15.6969868
    },
    {
      "epoch": "2026-04-02T17:57:10.999008Z",
      "apogee_km": 360.00496391862634,
      "perigee_km": 359.4214660900079,
      "latitude_deg": 8.974705664270367e-06,
      "longitude_deg": 167.17081567780087,
      "height_km": 360.47433740452925,
      "semi_major_axis_km": 6737.850215004317,
      "eccentricity": 4.33e-05,
      "inclination_deg": 53.1663,
      "raan_deg": 267.5589,
      "arg_perigee_deg": 302.105,
      "mean_anomaly_deg": 57.9926,
      "mean_motion_rev_day": 15.6971473
    },
    {
      "epoch": "2026-04-02T21:00:33.092928Z",
      "apogee_km": 360.7056669520198,
      "perigee_km": 358.7499343149884,
      "latitude_deg": -2.6258593291083994e-05,
      "longitude_deg": 120.57232042532067,
      "height_km": 360.74160284998004,
      "semi_major_axis_km": 6737.864800633504,
      "eccentricity": 0.00014513,
      "inclination_deg": 53.1602,
      "raan_deg": 266.928,
      "arg_perigee_deg": 95.9043,
      "mean_anomaly_deg": 264.214,
      "mean_motion_rev_day": 15.69709633
    },
    {
      "epoch": "2026-04-03T18:24:09.387648Z",
      "apogee_km": 360.8987400770866,
      "perigee_km": 358.66848835378096,
      "latitude_deg": 4.8361517565812765e-05,
      "longitude_deg": 154.39805170326534,
      "height_km": 360.5781113596375,
      "semi_major_axis_km": 6737.9206142154335,
      "eccentricity": 0.0001655,
      "inclination_deg": 53.1593,
      "raan_deg": 262.5335,
      "arg_perigee_deg": 83.9093,
      "mean_anomaly_deg": 276.2114,
      "mean_motion_rev_day": 15.69690129
    },
    {
      "epoch": "2026-04-04T20:22:47.575200Z",
      "apogee_km": 360.8714990287817,
      "perigee_km": 358.757129906302,
      "latitude_deg": 3.611218200078048e-05,
      "longitude_deg": 118.33357820580767,
      "height_km": 361.06074419860545,
      "semi_major_axis_km": 6737.951314467542,
      "eccentricity": 0.0001569,
      "inclination_deg": 53.1589,
      "raan_deg": 257.195,
      "arg_perigee_deg": 108.3857,
      "mean_anomaly_deg": 251.7332,
      "mean_motion_rev_day": 15.69679401
    },
    {
      "epoch": "2026-04-05T14:42:58.576608Z",
      "apogee_km": 360.5445710906097,
      "perigee_km": 358.9968736867768,
      "latitude_deg": -2.8457790855331407e-05,
      "longitude_deg": -161.22695909038333,
      "height_km": 360.71639427117606,
      "semi_major_axis_km": 6737.9077223886925,
      "eccentricity": 0.00011485,
      "inclination_deg": 53.1589,
      "raan_deg": 253.4334,
      "arg_perigee_deg": 92.3848,
      "mean_anomaly_deg": 267.7301,
      "mean_motion_rev_day": 15.69694634
    },
    {
      "epoch": "2026-04-05T19:17:59.761824Z",
      "apogee_km": 360.51811546730823,
      "perigee_km": 358.8646523818934,
      "latitude_deg": 4.918898497365335e-05,
      "longitude_deg": 128.8887156823817,
      "height_km": 360.7478117776267,
      "semi_major_axis_km": 6737.8283839246005,
      "eccentricity": 0.0001227,
      "inclination_deg": 53.1592,
      "raan_deg": 252.4922,
      "arg_perigee_deg": 99.9612,
      "mean_anomaly_deg": 260.1545,
      "mean_motion_rev_day": 15.69722359
    },
    {
      "epoch": "2026-04-05T19:17:59.762688Z",
      "apogee_km": 360.518048089024,
      "perigee_km": 358.86471976017765,
      "latitude_deg": 5.00981349207091e-05,
      "longitude_deg": 128.88871274984285,
      "height_km": 360.7478001226995,
      "semi_major_axis_km": 6737.8283839246005,
      "eccentricity": 0.00012269,
      "inclination_deg": 53.1592,
      "raan_deg": 252.4922,
      "arg_perigee_deg": 99.9612,
      "mean_anomaly_deg": 260.1545,
      "mean_motion_rev_day": 15.69722359
    },
    {
      "epoch": "2026-04-07T03:23:23.340768Z",
      "apogee_km": 360.25194242003727,
      "perigee_km": 359.2524439371218,
      "latitude_deg": 1.0338803549240474e-05,
      "longitude_deg": -0.3703467746130463,
      "height_km": 360.94151783550063,
      "semi_major_axis_km": 6737.889193178579,
      "eccentricity": 7.417e-05,
      "inclination_deg": 53.1588,
      "raan_deg": 245.8993,
      "arg_perigee_deg": 123.4102,
      "mean_anomaly_deg": 236.6987,
      "mean_motion_rev_day": 15.69701109
    },
    {
      "epoch": "2026-04-07T18:40:13.204704Z",
      "apogee_km": 360.39541565473337,
      "perigee_km": 358.96834561581363,
      "latitude_deg": -1.5102159025545479e-06,
      "longitude_deg": 126.65522756544831,
      "height_km": 361.17894049473347,
      "semi_major_axis_km": 6737.818880635273,
      "eccentricity": 0.0001059,
      "inclination_deg": 53.1591,
      "raan_deg": 242.7602,
      "arg_perigee_deg": 144.7724,
      "mean_anomaly_deg": 215.3364,
      "mean_motion_rev_day": 15.6972568
    },
    {
      "epoch": "2026-04-08T16:03:47.807712Z",
      "apogee_km": 360.1009058682848,
      "perigee_km": 359.36580421254985,
      "latitude_deg": -2.7230034961926202e-05,
      "longitude_deg": 160.49064944179543,
      "height_km": 360.63892207426505,
      "semi_major_axis_km": 6737.870355040417,
      "eccentricity": 5.455e-05,
      "inclination_deg": 53.1583,
      "raan_deg": 238.3684,
      "arg_perigee_deg": 88.654,
      "mean_anomaly_deg": 271.454,
      "mean_motion_rev_day": 15.69707692
    },
    {
      "epoch": "2026-04-09T08:52:18.847776Z",
      "apogee_km": 360.3436576567465,
      "perigee_km": 359.10065739936545,
      "latitude_deg": 2.3974044765180774e-05,
      "longitude_deg": -95.78325369246829,
      "height_km": 360.715049922922,
      "semi_major_axis_km": 6737.859157528055,
      "eccentricity": 9.224e-05,
      "inclination_deg": 53.1579,
      "raan_deg": 234.9141,
      "arg_perigee_deg": 97.3233,
      "mean_anomaly_deg": 262.789,
      "mean_motion_rev_day": 15.69711605
    },
    {
      "epoch": "2026-04-11T08:14:31.334208Z",
      "apogee_km": 360.5454998587102,
      "perigee_km": 358.93784200782557,
      "latitude_deg": 2.3233426415900287e-05,
      "longitude_deg": -98.00780812049396,
      "height_km": 360.3289879857215,
      "semi_major_axis_km": 6737.878670933268,
      "eccentricity": 0.0001193,
      "inclination_deg": 53.1593,
      "raan_deg": 225.187,
      "arg_perigee_deg": 66.0521,
      "mean_anomaly_deg": 294.0622,
      "mean_motion_rev_day": 15.69704786
    },
    {
      "epoch": "2026-04-13T07:36:41.416992Z",
      "apogee_km": 360.4522143478898,
      "perigee_km": 358.93148637636295,
      "latitude_deg": -2.132746242959873e-05,
      "longitude_deg": -100.22704916547131,
      "height_km": 360.3448194885709,
      "semi_major_axis_km": 6737.828850362126,
      "eccentricity": 0.00011285,
      "inclination_deg": 53.1574,
      "raan_deg": 215.4552,
      "arg_perigee_deg": 69.967,
      "mean_anomaly_deg": 290.1469,
      "mean_motion_rev_day": 15.69722196
    },
    {
      "epoch": "2026-04-14T14:10:23.220192Z",
      "apogee_km": 360.26198814221425,
      "perigee_km": 359.1556338600476,
      "latitude_deg": 2.2223346654809022e-05,
      "longitude_deg": 153.81478376835878,
      "height_km": 360.1633840413268,
      "semi_major_axis_km": 6737.845811001131,
      "eccentricity": 8.21e-05,
      "inclination_deg": 53.159,
      "raan_deg": 209.1763,
      "arg_perigee_deg": 326.4298,
      "mean_anomaly_deg": 33.6668,
      "mean_motion_rev_day": 15.69716269
    },
    {
      "epoch": "2026-04-15T13:05:39.133248Z",
      "apogee_km": 360.3116997768075,
      "perigee_km": 359.2458962558776,
      "latitude_deg": 2.134836101706667e-05,
      "longitude_deg": 164.34994483328427,
      "height_km": 360.5631764232862,
      "semi_major_axis_km": 6737.915798016342,
      "eccentricity": 7.909e-05,
      "inclination_deg": 53.1601,
      "raan_deg": 204.4691,
      "arg_perigee_deg": 75.911,
      "mean_anomaly_deg": 284.1996,
      "mean_motion_rev_day": 15.69691812
    }
  ]
}